C/2019 JU6 (ATLAS),h,06/02.7584/2019,148.3173,21.7325,94.8658,1.000003,2.035808,2000,14.5,4.0
# From MPEC 2022-O08
C/2019 K1 (ATLAS),e,87.0141,73.3077,265.7588,3787,0.0000042,0.99946705,0.0000,02/11.6273/2020,2000,g 10.0,4.0
# From MPC119997
C/2019 K4 (Ye),e,105.2938,180.2336,139.9912,1566,0.0000159,0.99854692,0.0000,06/15.2576/2019,2000,g 12.5,4.0
# From MPEC 2021-P47
C/2019 K5 (Young),e,15.3039,177.2315,175.1527,169.5807,0.0004463,0.98790440,0.0000,06/22.1090/2019,2000,g 13.0,4.0
# From MPEC 2021-P47
C/2019 K6 (PANSTARRS),e,132.3817,42.9966,187.4801,1064,0.0000284,0.99631766,0.0000,05/19.1679/2020,2000,g 11.5,4.0
# From MPEC 2024-GJ3
C/2019 K7 (Smith),h,06/17.4829/2020,103.4959,308.0166,27.3903,1.000746,4.476596,2000,6.0,4.0
# From MPEC 2021-R75
C/2019 K8 (ATLAS),e,93.0719,291.0030,85.3630,1921,0.0000117,0.99833626,0.0000,07/20.9217/2019,2000,g 11.5,4.0
# From MPEC 2023-A50
C/2019 L1 (PANSTARRS),e,9.9739,254.4271,50.0429,9.826685,0.0319958,0.70446049,60.3919,10/08.0/2024,2000,g 13.5,4.0
# From MPC115886
C/2019 L2 (NEOWISE),e,152.1798,12.5667,18.8638,25.13427,0.0078218,0.93538232,15.7598,10/08.0/2024,2000,g 16.0,4.0
# From MPEC 2024-GJ3
P/2019 LD2 (ATLAS),e,11.5992,179.2258,117.3536,5.186341,0.0834473,0.12849369,142.0891,10/08.0/2024,2000,g  8.5,4.0
# From MPEC 2024-P23
C/2019 L3 (ATLAS),h,01/09.9550/2022,48.3445,290.7340,171.6949,1.002790,3.556161,2000,4.5,4.0
# From MPEC 2020-K19
P/2019 LM4 (Palomar),e,36.4183,72.8431,68.2550,5.703268,0.0723633,0.58569875,140.2451,10/08.0/2024,2000,g  9.5,4.0
# From MPC118095
C/2019 LB7 (Kleyna),e,164.2853,3.9498,336.7186,34.93590,0.0047731,0.92855697,9.6518,10/08.0/2024,2000,g 17.0,4.0
# From MPC118095
C/2019 M3 (ATLAS),e,99.6020,155.0044,87.9296,4709,0.0000031,0.99948496,0.0000,12/31.2898/2018,2000,g 12.2,4.0
# From MPEC 2023-JA2
C/2019 M4 (TESS),h,09/10.8158/2019,65.6800,52.6483,260.3616,1.001514,9.190968,2000,5.0,4.0
# From MPEC 2023-C45
C/2019 N1 (ATLAS),e,82.4766,13.5428,193.3596,1052,0.0000289,0.99838000,0.0000,11/30.7215/2020,2000,g  7.5,4.0
# From MPEC 2023-CD8
A/2019 N2,e,89.3339,276.2062,347.1237,1294,0.0000212,0.99849765,0.0000,08/22.5719/2019,2000,g 12.5,2.0
# From MPEC 2022-A21
C/2019 NJ3 (Lemmon),h,10/22.6368/2020,99.3661,142.4883,246.8870,1.001797,4.363114,2000,9.0,4.0
# From MPEC 2024-R10
C/2019 O2 (PANSTARRS),e,93.3102,48.2589,129.5943,58.54357,0.0022003,0.83462069,1.2116,10/08.0/2024,2000,g  5.0,4.0
# From MPEC 2024-PC5
C/2019 O3 (Palomar),h,03/09.2235/2021,89.8047,300.4623,60.1226,1.003685,8.821282,2000,3.5,4.0
# From MPEC 2021-P47
A/2019 O4,e,115.0441,354.9287,61.8542,33.26497,0.0051372,0.89043490,8.7378,10/08.0/2024,2000,g 15.5,2.0
# From MPEC 2024-EF7
C/2019 Q1 (Lemmon),h,07/21.7170/2020,155.7292,42.4591,56.2549,1.002029,5.004881,2000,8.5,4.0
# From MPC117072
A/2019 Q2,e,158.9990,188.0730,176.4823,58.59536,0.0021974,0.97844298,0.0000,07/22.9566/2019,2000,g 18.0,2.0
# From MPC117072
P/2019 S2 (PANSTARRS),e,10.4639,93.1822,217.0313,4.746120,0.0953226,0.20483026,196.2181,10/08.0/2024,2000,g 13.5,4.0
# From MPEC 2022-CN4
P/2019 S3 (PANSTARRS),e,8.6935,150.1514,213.0826,3.414965,0.1561797,0.47089400,291.7314,10/08.0/2024,2000,g 18.3,4.0
# From MPEC 2021-S45
C/2019 S4 (Lemmon),e,92.1082,63.1584,71.3731,244.0053,0.0002586,0.98589875,0.0000,04/08.8227/2020,2000,g 11.0,4.0
# From MPEC 2023-N01
A/2019 T1,e,120.8472,6.9400,91.0241,38.82678,0.0040739,0.88983502,5.5485,10/08.0/2024,2000,g 13.0,2.0
# From MPEC 2023-R20
C/2019 T2 (Lemmon),e,111.4122,155.6565,239.4107,4573,0.0000032,0.99942169,0.0000,04/22.6691/2021,2000,g  9.0,4.0
# From MPEC 2023-UR6
C/2019 T3 (ATLAS),e,121.8554,139.5360,112.4738,3618,0.0000045,0.99835460,0.0000,03/04.4199/2021,2000,g  6.8,4.0
# From MPEC 2024-TD8
C/2019 T4 (ATLAS),e,53.6271,199.9245,351.1169,880.0140,0.0000378,0.99518286,0.0000,06/08.6584/2022,2000,g  5.0,4.0
# From MPEC 2021-P47
P/2019 T5 (ATLAS),e,33.4994,247.6110,189.5996,8.003906,0.0435262,0.80983580,82.3954,10/08.0/2024,2000,g 15.0,4.0
# From MPEC 2021-P47
P/2019 T6 (PANSTARRS),e,18.7003,71.2435,329.0379,5.441129,0.0776552,0.62283820,139.3842,10/08.0/2024,2000,g 15.5,4.0
# From MPC118096
P/2019 U4 (PANSTARRS),e,11.6968,200.0134,181.0612,3.519415,0.1492789,0.47588906,275.2949,10/08.0/2024,2000,g 19.0,4.0
# From MPEC 2024-TD8
C/2019 U5 (PANSTARRS),h,03/29.6203/2023,113.5130,2.6264,181.4606,1.000623,3.623860,2000,4.5,4.0
# From MPEC 2022-H04
C/2019 U6 (Lemmon),e,60.9674,235.7859,329.4661,311.5814,0.0001792,0.99708165,0.0000,06/18.2511/2020,2000,g 10.0,4.0
# From MPEC 2022-N37
C/2019 V1 (Borisov),e,61.9454,83.1487,51.1768,2052,0.0000106,0.99849251,0.0000,07/17.0728/2020,2000,g 11.0,4.0
# From MPEC 2022-L66
P/2019 V2 (Groeller),e,11.8070,189.1623,335.6275,7.494935,0.0480344,0.33153450,69.7577,10/08.0/2024,2000,g 10.0,4.0
# From MPEC 2023-A50
P/2019 W1 (PANSTARRS),e,23.4718,35.3726,18.8348,4.548637,0.1015973,0.26730457,200.8401,10/08.0/2024,2000,g 12.9,4.0
# From MPEC 2021-P47
P/2019 X1 (Pruyne),e,10.2489,43.6797,36.9056,6.177229,0.0641968,0.30397157,122.1696,10/08.0/2024,2000,g 10.4,4.0
# From MPEC 2020-C98
P/2019 X2 (Pan-STARRS),e,15.8953,250.8399,213.4726,3.635198,0.1422041,0.50031015,250.7425,10/08.0/2024,2000,g 18.0,4.0
# From MPC119999
C/2019 Y1 (ATLAS),e,73.3458,31.5209,57.9066,87.69583,0.0012002,0.99056926,0.0000,03/16.8054/2020,2000,g 13.7,4.0
# From MPEC 2020-K19
P/2019 Y2 (Fuls),e,4.8766,80.2420,93.3395,3.488521,0.1512663,0.37645195,260.7584,10/08.0/2024,2000,g  9.0,4.0
# From MPEC 2020-C98
P/2019 Y3 (Catalina),e,24.5976,139.2919,2.5681,3.015497,0.1882200,0.69115794,332.4870,10/08.0/2024,2000,g 18.5,4.0
# From MPEC 2024-A43
C/2019 Y4 (ATLAS),e,45.0194,120.7541,177.4310,344.4383,0.0001542,0.99925439,0.0000,05/30.2323/2020,2000,g 11.8,6.0
# From MPEC 2020-L06
C/2019 Y4-A (ATLAS),h,05/30.2738/2020,45.4570,121.1197,177.2641,1.001394,0.254977,2000,11.6,6.0
# From MPEC 2023-J29
C/2019 Y4-B (ATLAS),e,45.1486,120.8615,177.3751,18917,0.0000004,0.99998645,0.0000,05/30.2431/2020,2000,g 12.1,6.0
# From MPEC 2020-L06
C/2019 Y4-C (ATLAS),h,05/30.2259/2020,45.2402,120.8468,177.2972,1.002121,0.256052,2000,12.7,6.0
# From MPEC 2020-L06
C/2019 Y4-D (ATLAS),e,45.2904,121.2124,177.4378,67.83861,0.0017640,0.99623582,0.0000,05/30.3380/2020,2000,g 12.5,6.0
# From MPEC 2023-A50
C/2019 Y5 (PANSTARRS),e,82.7629,51.7522,303.6310,704.1168,0.0000528,0.99299993,0.0000,08/17.1133/2019,2000,g 11.0,4.0
# From MPEC 2023-A50
A/2020 A1,e,149.0323,119.1071,302.4108,25.49571,0.0076560,0.93456579,13.5737,10/08.0/2024,2000,g 18.0,2.0
# From MPEC 2022-YN2
C/2020 A2 (Iwamoto),e,120.5354,286.2175,68.0212,1081,0.0000277,0.99909920,0.0000,01/07.8438/2020,2000,g 13.5,4.0
# From MPEC 2023-A50
C/2020 A3 (ATLAS),e,146.6345,120.8024,268.2734,15932,0.0000005,0.99963883,0.0000,06/27.8989/2019,2000,g  8.0,4.0
# From MPEC 2022-P91
P/2020 A4 (PANSTARRS-Lemmon),e,24.9970,312.3154,144.8378,8.198741,0.0419840,0.65444642,74.7317,10/08.0/2024,2000,g 15.0,4.0
# From MPEC 2020-N08
A/2020 B1,e,18.5317,309.8574,154.8020,51.81178,0.0026428,0.96644884,4.6163,10/08.0/2024,2000,g 21.0,2.0
# From MPEC 2020-HN5
C/2020 B2 (Lemmon),e,55.7525,354.2341,143.5976,67.71137,0.0017689,0.95928524,3.0355,10/08.0/2024,2000,g 10.0,4.0
# From MPEC 2022-N37
C/2020 B3 (Rankin),e,20.7074,185.7962,324.8894,974.9995,0.0000324,0.99658525,0.0000,10/20.1527/2019,2000,g 13.0,4.0
# From MPEC 2023-KD6
P/2020 B4 (Sheppard),e,11.6056,185.9660,341.9873,7.969804,0.0438059,0.19245695,46.2045,10/08.0/2024,2000,g 10.5,4.0
# From MPEC 2024-PC5
C/2020 F2 (ATLAS),h,07/13.3208/2022,163.5896,250.3044,48.2677,1.003853,8.814261,2000,4.5,4.0
# From MPEC 2021-O56
C/2020 F3 (NEOWISE),e,129.1540,61.0973,37.3846,389.6439,0.0001281,0.99924410,0.0000,07/04.4548/2020,2000,g  7.5,5.2
# From MPEC 2024-BE0
C/2020 F5 (MASTER),e,52.2177,350.5161,310.6600,167.5381,0.0004545,0.97417350,0.0000,03/16.6583/2021,2000,g  6.5,3.2
# From MPEC 2020-L06
C/2020 F6 (PANSTARRS),e,174.5834,207.8753,344.4082,362.0938,0.0001430,0.99033579,0.0000,04/11.0797/2020,2000,g 14.5,2.8
# From MPEC 2024-A43
C/2020 F7 (Lemmon),e,93.9673,321.8386,227.9586,554.7601,0.0000754,0.99038621,0.0000,11/13.6497/2021,2000,g  7.0,4.0
# From MPEC 2023-J29
C/2020 F8 (SWAN),h,05/26.4553/2020,110.5568,259.8029,68.0798,1.000104,0.431023,2000,10.0,4.0
# From MPEC 2020-L06
P/2020 G1 (Pimentel),e,18.5116,240.1107,207.6249,3.607303,0.1438567,0.86075848,239.4215,10/08.0/2024,2000,g 17.0,4.0
# From MPEC 2022-YB4
C/2020 H2 (Pruyne),e,124.8051,277.6714,26.6081,181.8163,0.0004020,0.99544041,0.0000,04/27.4526/2020,2000,g 14.0,3.2
# From MPEC 2020-HM1
C/2020 H3 (Wierzchos),p,06/05.7162/2020,62.5292,30.4456,2.300288,270.6227,2000,13.5,4.0
# From MPEC 2020-L06
C/2020 H4 (Leonard),e,84.4950,307.5277,117.5371,47.81915,0.0029806,0.98064732,0.0000,08/29.4909/2020,2000,g 15.0,3.2
# From MPEC 2024-P23
C/2020 H5 (Robinson),e,70.2458,210.6238,326.2791,4990,0.0000028,0.99812883,0.0000,12/10.0038/2020,2000,g  5.0,4.0
# From MPEC 2024-JU4
C/2020 H6 (ATLAS),e,79.9803,213.7111,20.2271,2528,0.0000078,0.99814148,0.0000,09/29.9382/2021,2000,g  8.0,3.2
# From MPEC 2020-KB7
C/2020 H7 (Lemmon),e,135.9235,323.5194,82.6780,1405,0.0000187,0.99685380,0.0000,06/02.9510/2020,2000,g 11.0,4.0
# From MPEC 2021-N06
C/2020 H8 (PANSTARRS),e,99.7068,68.4443,128.8711,597.5708,0.0000675,0.99218769,0.0000,06/04.6555/2020,2000,g 10.5,4.0
# From MPEC 2022-ED3
A/2020 H9,e,137.8769,213.1616,312.7056,354.2655,0.0001478,0.99275789,0.0000,12/21.9261/2019,2000,g 18.0,2.0
# From MPEC 2023-HN7
C/2020 H11 (PANSTARRS-Lemmon),h,09/13.5959/2020,151.3819,303.0529,91.3989,1.000817,7.622287,2000,8.5,4.0
# From MPEC 2023-KD6
C/2020 J1 (SONEAR),h,04/18.3863/2021,142.3059,226.6054,341.6454,1.000146,3.347716,2000,8.5,3.2
# From MPEC 2024-TD8
C/2020 K1 (PANSTARRS),e,89.6721,94.3651,213.9777,4421,0.0000034,0.99930472,0.0000,05/08.9828/2023,2000,g  5.5,4.0
# From MPEC 2021-N06
C/2020 K2 (PANSTARRS),h,08/05.4342/2020,90.9978,288.4243,67.3328,1.002072,8.880481,2000,10.8,4.0
# From MPEC 2020-KF9
C/2020 K3 (Leonard),p,06/01.0032/2020,129.0152,64.4924,1.583069,28.3546,2000,14.5,4.0
# From MPEC 2020-L06
